IRIDIUM 144             
1 43249U 18030A   24324.33800288  .00000462  00000+0  15803-3 0  9992
2 43249  86.3996 170.6959 0002061  79.9485 280.1943 14.34218689347741
IRIDIUM 149             
1 43250U 18030B   24324.69318746  .00000182  00000+0  57842-4 0  9995
2 43250  86.3997 170.5213 0001813  85.2806 274.8597 14.34217913347819
IRIDIUM 157             
1 43251U 18030C   24324.50290456  .00000486  00000+0  16647-3 0  9997
2 43251  86.3997 170.6410 0001981  89.8667 270.2756 14.34216186347763
IRIDIUM 140             
1 43252U 18030D   24324.52193161  .00000363  00000+0  12256-3 0  9991
2 43252  86.3995 170.6471 0002092  83.9480 276.1955 14.34216240347825
IRIDIUM 145             
1 43253U 18030E   24324.64878850  .00000594  00000+0  20492-3 0  9997
2 43253  86.3997 170.5675 0001882  75.3845 284.7560 14.34221865347779
IRIDIUM 146             
1 43254U 18030F   24325.04837221  .00000540  00000+0  18575-3 0  9990
2 43254  86.3996 170.4150 0001839  75.5223 284.6176 14.34221219347843
IRIDIUM 148             
1 43255U 18030G   24324.52829822  .00000413  00000+0  14058-3 0  9992
2 43255  86.3997 170.6663 0001782  84.2806 275.8593 14.34214643347812
IRIDIUM 142             
1 43256U 18030H   24324.91516840  .00000498  00000+0  17081-3 0  9991
2 43256  86.3994 170.4149 0001678  75.8530 284.2852 14.34223053347829
